STARLINK-5306           
1 55271U 23010C   26068.35849346  .00000787  00000+0  73714-4 0  9997
2 55271  70.0003  45.3995 0003022 270.3748  89.7065 14.98330801172737
SHIYAN-24C 03           
1 58652U 23206C   26068.89147317  .00001350  00000+0  11928-3 0  9993
2 58652  97.3969  41.7507 0002411  66.6237 293.5240 14.97896938120432
